{"type": "FeatureCollection", "features": [ {"type": "Feature", "properties": {"norad_id": 67103, "name": "STARLINK-36256", "group": "last-30-days", "lat": 13.47399373900696, "lon": 30.48751203533285, "alt_km": 344.73737791974236, "timestamp": "2025-12-27T15:27:09.834099+00:00", "meta": {"OBJECT_NAME": "STARLINK-36256", "OBJECT_ID": "2025-299B", "EPOCH": "2025-12-27T06:00:02.000160", "MEAN_MOTION": 15.76045529, "ECCENTRICITY": 0.00016317, "INCLINATION": 42.9985, "RA_OF_ASC_NODE": 227.7785, "ARG_OF_PERICENTER": 276.5448, "MEAN_ANOMALY": 167.2885, "EPHEMERIS_TYPE": 0, "CLASSIFICATION_TYPE": "U", "NORAD_CAT_ID": 67103, "ELEMENT_SET_NO": 999, "REV_AT_EPOCH": 314, "BSTAR": -0.013413692, "MEAN_MOTION_DOT": -0.01877596, "MEAN_MOTION_DDOT": 0}, "tle": {"line1": "1 67103U 25299B   25361.25002315 -.01877596  00000+0 -13414-1 0  9997", "line2": "2 67103  42.9985 227.7785 0001631 276.5448 167.2885 15.76045529  3140"}}, "geometry": {"type": "Point", "coordinates": [30.48751203533285, 13.47399373900696]}}, {"type": "Feature", "properties": {"norad_id": 67104, "name": "STARLINK-36258", "group": "last-30-days", "lat": 12.41557992213944, "lon": 31.717243161655094, "alt_km": 344.96785715363876, "timestamp": "2025-12-27T15:27:09.834109+00:00", "meta": {"OBJECT_NAME": "STARLINK-36258", "OBJECT_ID": "2025-299C", "EPOCH": "2025-12-27T06:00:02.000160", "MEAN_MOTION": 15.76055928, "ECCENTRICITY": 0.00017268, "INCLINATION": 42.9988, "RA_OF_ASC_NODE": 227.774, "ARG_OF_PERICENTER": 281.5905, "MEAN_ANOMALY": 163.8244, "EPHEMERIS_TYPE": 0, "CLASSIFICATION_TYPE": "U", "NORAD_CAT_ID": 67104, "ELEMENT_SET_NO": 999, "REV_AT_EPOCH": 314, "BSTAR": -0.01334917, "MEAN_MOTION_DOT": -0.01870592, "MEAN_MOTION_DDOT": 0}, "tle": {"line1": "1 67104U 25299C   25361.25002315 -.01870592  00000+0 -13349-1 0  9994", "line2": "2 67104  42.9988 227.7740 0001726 281.5905 163.8244 15.76055928  3149"}}, "geometry": {"type": "Point", "coordinates": [31.717243161655094, 12.41557992213944]}}, {"type": "Feature", "properties": {"norad_id": 67105, "name": "STARLINK-36261", "group": "last-30-days", "lat": 11.464402164510469, "lon": 32.80908604629359, "alt_km": 344.918442850073, "timestamp": "2025-12-27T15:27:09.834120+00:00", "meta": {"OBJECT_NAME": "STARLINK-36261", "OBJECT_ID": "2025-299D", "EPOCH": "2025-12-27T06:00:02.000160", "MEAN_MOTION": 15.76080269, "ECCENTRICITY": 0.00017215, "INCLINATION": 42.9985, "RA_OF_ASC_NODE": 227.771, "ARG_OF_PERICENTER": 277.4731, "MEAN_ANOMALY": 169.342, "EPHEMERIS_TYPE": 0, "CLASSIFICATION_TYPE": "U", "NORAD_CAT_ID": 67105, "ELEMENT_SET_NO": 999, "REV_AT_EPOCH": 314, "BSTAR": -0.013356453, "MEAN_MOTION_DOT": -0.01873243, "MEAN_MOTION_DDOT": 0}, "tle": {"line1": "1 67105U 25299D   25361.25002315 -.01873243  00000+0 -13356-1 0  9999", "line2": "2 67105  42.9985 227.7710 0001721 277.4731 169.3420 15.76080269  3143"}}, "geometry": {"type": "Point", "coordinates": [32.80908604629359, 11.464402164510469]}}, {"type": "Feature", "properties": {"norad_id": 67106, "name": "STARLINK-36259", "group": "last-30-days", "lat": 9.165978917119677, "lon": 35.39939066961531, "alt_km": 344.9275674282799, "timestamp": "2025-12-27T15:27:09.834130+00:00", "meta": {"OBJECT_NAME": "STARLINK-36259", "OBJECT_ID": "2025-299E", "EPOCH": "2025-12-27T06:00:02.000160", "MEAN_MOTION": 15.76096637, "ECCENTRICITY": 0.00016319, "INCLINATION": 42.9986, "RA_OF_ASC_NODE": 227.7622, "ARG_OF_PERICENTER": 270.275, "MEAN_ANOMALY": 179.9533, "EPHEMERIS_TYPE": 0, "CLASSIFICATION_TYPE": "U", "NORAD_CAT_ID": 67106, "ELEMENT_SET_NO": 999, "REV_AT_EPOCH": 314, "BSTAR": -0.013338455, "MEAN_MOTION_DOT": -0.01872157, "MEAN_MOTION_DDOT": 0}, "tle": {"line1": "1 67106U 25299E   25361.25002315 -.01872157  00000+0 -13338-1 0  9993", "line2": "2 67106  42.9986 227.7622 0001631 270.2750 179.9533 15.76096637  3147"}}, "geometry": {"type": "Point", "coordinates": [35.39939066961531, 9.165978917119677]}}, {"type": "Feature", "properties": {"norad_id": 67107, "name": "STARLINK-36196", "group": "last-30-days", "lat": 10.356824430917557, "lon": 34.065191379906345, "alt_km": 344.8293846477827, "timestamp": "2025-12-27T15:27:09.834140+00:00", "meta": {"OBJECT_NAME": "STARLINK-36196", "OBJECT_ID": "2025-299F", "EPOCH": "2025-12-27T06:00:02.000160", "MEAN_MOTION": 15.760947, "ECCENTRICITY": 0.00015896, "INCLINATION": 42.9987, "RA_OF_ASC_NODE": 227.7669, "ARG_OF_PERICENTER": 271.6484, "MEAN_ANOMALY": 176.8071, "EPHEMERIS_TYPE": 0, "CLASSIFICATION_TYPE": "U", "NORAD_CAT_ID": 67107, "ELEMENT_SET_NO": 999, "REV_AT_EPOCH": 314, "BSTAR": -0.013361061, "MEAN_MOTION_DOT": -0.01874733, "MEAN_MOTION_DDOT": 0}, "tle": {"line1": "1 67107U 25299F   25361.25002315 -.01874733  00000+0 -13361-1 0  9992", "line2": "2 67107  42.9987 227.7669 0001589 271.6484 176.8071 15.76094700  3143"}}, "geometry": {"type": "Point", "coordinates": [34.065191379906345, 10.356824430917557]}}, {"type": "Feature", "properties": {"norad_id": 67108, "name": "STARLINK-36208", "group": "last-30-days", "lat": 7.975288569341167, "lon": 36.71896443368001, "alt_km": 345.02488765228645, "timestamp": "2025-12-27T15:27:09.834152+00:00", "meta": {"OBJECT_NAME": "STARLINK-36208", "OBJECT_ID": "2025-299G", "EPOCH": "2025-12-27T06:00:02.000160", "MEAN_MOTION": 15.76105665, "ECCENTRICITY": 0.00016214, "INCLINATION": 42.9986, "RA_OF_ASC_NODE": 227.7574, "ARG_OF_PERICENTER": 269.85, "MEAN_ANOMALY": 182.1354, "EPHEMERIS_TYPE": 0, "CLASSIFICATION_TYPE": "U", "NORAD_CAT_ID": 67108, "ELEMENT_SET_NO": 999, "REV_AT_EPOCH": 314, "BSTAR": -0.013340336, "MEAN_MOTION_DOT": -0.01873033, "MEAN_MOTION_DDOT": 0}, "tle": {"line1": "1 67108U 25299G   25361.25002315 -.01873033  00000+0 -13340-1 0  9992", "line2": "2 67108  42.9986 227.7574 0001621 269.8500 182.1354 15.76105665  3140"}}, "geometry": {"type": "Point", "coordinates": [36.71896443368001, 7.975288569341167]}}, {"type": "Feature", "properties": {"norad_id": 67109, "name": "STARLINK-35764", "group": "last-30-days", "lat": 6.716814319247916, "lon": 38.10111741964937, "alt_km": 345.3426074174513, "timestamp": "2025-12-27T15:27:09.834165+00:00", "meta": {"OBJECT_NAME": "STARLINK-35764", "OBJECT_ID": "2025-299H", "EPOCH": "2025-12-27T06:00:02.000160", "MEAN_MOTION": 15.76080381, "ECCENTRICITY": 0.0001929, "INCLINATION": 42.9984, "RA_OF_ASC_NODE": 227.7531, "ARG_OF_PERICENTER": 274.7554, "MEAN_ANOMALY": 179.1104, "EPHEMERIS_TYPE": 0, "CLASSIFICATION_TYPE": "U", "NORAD_CAT_ID": 67109, "ELEMENT_SET_NO": 999, "REV_AT_EPOCH": 303, "BSTAR": -0.013099594, "MEAN_MOTION_DOT": -0.01842062, "MEAN_MOTION_DDOT": 0}, "tle": {"line1": "1 67109U 25299H   25361.25002315 -.01842062  00000+0 -13100-1 0  9995", "line2": "2 67109  42.9984 227.7531 0001929 274.7554 179.1104 15.76080381  3031"}}, "geometry": {"type": "Point", "coordinates": [38.10111741964937, 6.716814319247916]}}, {"type": "Feature", "properties": {"norad_id": 67110, "name": "STARLINK-35781", "group": "last-30-days", "lat": 4.241445847489062, "lon": 40.78805881474713, "alt_km": 345.39316719954877, "timestamp": "2025-12-27T15:27:09.834175+00:00", "meta": {"OBJECT_NAME": "STARLINK-35781", "OBJECT_ID": "2025-299J", "EPOCH": "2025-12-27T06:00:02.000160", "MEAN_MOTION": 15.76118896, "ECCENTRICITY": 0.00015025, "INCLINATION": 42.9987, "RA_OF_ASC_NODE": 227.744, "ARG_OF_PERICENTER": 270.5019, "MEAN_ANOMALY": 186.9768, "EPHEMERIS_TYPE": 0, "CLASSIFICATION_TYPE": "U", "NORAD_CAT_ID": 67110, "ELEMENT_SET_NO": 999, "REV_AT_EPOCH": 309, "BSTAR": -0.013333596, "MEAN_MOTION_DOT": -0.01873065, "MEAN_MOTION_DDOT": 0}, "tle": {"line1": "1 67110U 25299J   25361.25002315 -.01873065  00000+0 -13334-1 0  9993", "line2": "2 67110  42.9987 227.7440 0001502 270.5019 186.9768 15.76118896  3093"}}, "geometry": {"type": "Point", "coordinates": [40.78805881474713, 4.241445847489062]}}, {"type": "Feature", "properties": {"norad_id": 67111, "name": "STARLINK-35875", "group": "last-30-days", "lat": 5.453676458583656, "lon": 39.47659631329872, "alt_km": 345.3188712295423, "timestamp": "2025-12-27T15:27:09.834188+00:00", "meta": {"OBJECT_NAME": "STARLINK-35875", "OBJECT_ID": "2025-299K", "EPOCH": "2025-12-27T06:00:02.000160", "MEAN_MOTION": 15.76112103, "ECCENTRICITY": 0.00016006, "INCLINATION": 42.9986, "RA_OF_ASC_NODE": 227.7484, "ARG_OF_PERICENTER": 271.1116, "MEAN_ANOMALY": 184.5944, "EPHEMERIS_TYPE": 0, "CLASSIFICATION_TYPE": "U", "NORAD_CAT_ID": 67111, "ELEMENT_SET_NO": 999, "REV_AT_EPOCH": 303, "BSTAR": -0.013359486, "MEAN_MOTION_DOT": -0.01875817, "MEAN_MOTION_DDOT": 0}, "tle": {"line1": "1 67111U 25299K   25361.25002315 -.01875817  00000+0 -13359-1 0  9998", "line2": "2 67111  42.9986 227.7484 0001600 271.1116 184.5944 15.76112103  3034"}}, "geometry": {"type": "Point", "coordinates": [39.47659631329872, 5.453676458583656]}}, {"type": "Feature", "properties": {"norad_id": 67112, "name": "STARLINK-35906", "group": "last-30-days", "lat": 3.151420288056636, "lon": 41.961931628349205, "alt_km": 345.5004716038575, "timestamp": "2025-12-27T15:27:09.834198+00:00", "meta": {"OBJECT_NAME": "STARLINK-35906", "OBJECT_ID": "2025-299L", "EPOCH": "2025-12-27T06:00:02.000160", "MEAN_MOTION": 15.76131002, "ECCENTRICITY": 0.00015807, "INCLINATION": 42.9989, "RA_OF_ASC_NODE": 227.7403, "ARG_OF_PERICENTER": 271.5732, "MEAN_ANOMALY": 187.4893, "EPHEMERIS_TYPE": 0, "CLASSIFICATION_TYPE": "U", "NORAD_CAT_ID": 67112, "ELEMENT_SET_NO": 999, "REV_AT_EPOCH": 303, "BSTAR": -0.013298905, "MEAN_MOTION_DOT": -0.0186978, "MEAN_MOTION_DDOT": 0}, "tle": {"line1": "1 67112U 25299L   25361.25002315 -.01869780  00000+0 -13299-1 0  9994", "line2": "2 67112  42.9989 227.7403 0001580 271.5732 187.4893 15.76131002  3038"}}, "geometry": {"type": "Point", "coordinates": [41.961931628349205, 3.151420288056636]}}]}